NORAD_CAT_ID,OBJECT_NAME,OBJECT_TYPE,EPOCH,MEAN_MOTION,ECCENTRICITY,INCLINATION,RA_OF_ASC_NODE,ARG_OF_PERICENTER,MEAN_ANOMALY,BSTAR,MEAN_MOTION_DOT,MEAN_MOTION_DDOT,TLE_LINE0,TLE_LINE1,TLE_LINE2,SEMIMAJOR_AXIS,PERIOD,APOGEE,PERIGEE,DECAYED
53745.0,STARLINK-4656,PAYLOAD,2024-04-09 03:24:11,15.0883904,0.0001262,53.2167,164.6458,91.032,269.0817,0.00013895,1.924e-05,0.0,0 STARLINK-4656,1 53745U 22107AX  24100.14180462  .00001924  00000-0  13895-3 0  9994,2 53745  53.2167 164.6458 0001262  91.0320 269.0817 15.08839040 88209,6917.883,95.438,540.621,538.875,0.0
53745.0,STARLINK-4656,PAYLOAD,2024-04-09 11:21:08,15.08833761,0.0001358,53.2176,163.1581,90.2483,269.8665,6.2578e-05,7.08e-06,0.0,0 STARLINK-4656,1 53745U 22107AX  24100.47301097  .00000708  00000-0  62578-4 0  9991,2 53745  53.2176 163.1581 0001358  90.2483 269.8665 15.08833761 88255,6917.899,95.438,540.704,538.825,0.0
53745.0,STARLINK-4656,PAYLOAD,2024-04-09 20:53:26,15.08841466,0.0001508,53.2179,161.3737,93.7374,266.379,1.033e-05,-1.24e-06,0.0,0 STARLINK-4656,1 53745U 22107AX  24100.87044753 -.00000124  00000-0  10330-4 0  9990,2 53745  53.2179 161.3737 0001508  93.7374 266.3790 15.08841466 89090,6917.876,95.437,540.784,538.698,0.0
53745.0,STARLINK-4656,PAYLOAD,2024-04-10 04:50:22,15.08845855,0.0001627,53.2174,159.8866,96.4455,263.6722,2.3675e-05,8.9e-07,0.0,0 STARLINK-4656,1 53745U 22107AX  24101.20164483  .00000089  00000-0  23675-4 0  9996,2 53745  53.2174 159.8866 0001627  96.4455 263.6722 15.08845855 88362,6917.862,95.437,540.853,538.602,0.0
53745.0,STARLINK-4656,PAYLOAD,2024-04-10 12:47:17,15.08850332,0.0001673,53.2176,158.3999,99.1297,260.9885,2.2507e-05,7e-07,0.0,0 STARLINK-4656,1 53745U 22107AX  24101.53284033  .00000070  00000-0  22507-4 0  9999,2 53745  53.2176 158.3999 0001673  99.1297 260.9885 15.08850332 89198,6917.849,95.437,540.871,538.556,0.0
53745.0,STARLINK-4656,PAYLOAD,2024-04-10 20:44:13,15.08844123,0.0001695,53.2181,156.9108,88.4807,271.6379,-8.462e-05,-1.635e-05,0.0,0 STARLINK-4656,1 53745U 22107AX  24101.86404696 -.00001635  00000-0 -84620-4 0  9998,2 53745  53.2181 156.9108 0001695  88.4807 271.6379 15.08844123 89246,6917.868,95.437,540.905,538.56,0.0
53745.0,STARLINK-4656,PAYLOAD,2024-04-11 03:05:46,15.08835432,0.0001613,53.2182,155.723,89.1154,271.0023,4.3967e-05,4.12e-06,0.0,0 STARLINK-4656,1 53745U 22107AX  24102.12900932  .00000412  00000-0  43967-4 0  9991,2 53745  53.2182 155.7230 0001613  89.1154 271.0023 15.08835432 88504,6917.894,95.438,540.875,538.643,0.0
53745.0,STARLINK-4656,PAYLOAD,2024-04-11 11:02:42,15.08836339,0.000176,53.2177,154.2344,89.8959,270.2235,-5.2567e-06,-3.72e-06,0.0,0 STARLINK-4656,1 53745U 22107AX  24102.46021117 -.00000372  00000-0 -52567-5 0  9991,2 53745  53.2177 154.2344 0001760  89.8959 270.2235 15.08836339 89336,6917.892,95.438,540.974,538.539,0.0
53745.0,STARLINK-4656,PAYLOAD,2024-04-11 20:35:00,15.08837868,0.0001527,53.2177,152.4513,87.9842,272.1325,3.1716e-05,2.17e-06,0.0,0 STARLINK-4656,1 53745U 22107AX  24102.85764974  .00000217  00000-0  31716-4 0  9997,2 53745  53.2177 152.4513 0001527  87.9842 272.1325 15.08837868 89390,6917.887,95.438,540.808,538.696,0.0
53745.0,STARLINK-4656,PAYLOAD,2024-04-12 10:53:29,15.08844414,0.0001844,53.2177,149.7749,99.1101,261.01,-3.5964e-05,-8.61e-06,0.0,0 STARLINK-4656,1 53745U 22107AX  24103.45380822 -.00000861  00000-0 -35964-4 0  9996,2 53745  53.2177 149.7749 0001844  99.1101 261.0100 15.08844414 88702,6917.867,95.437,541.008,538.456,0.0
53745.0,STARLINK-4656,PAYLOAD,2024-04-13 09:08:52,15.088417,0.0001508,53.217,145.611,94.675,265.4415,8.6851e-05,1.095e-05,0.0,0 STARLINK-4656,1 53745U 22107AX  24104.38116665  .00001095  00000-0  86851-4 0  9990,2 53745  53.2170 145.6110 0001508  94.6750 265.4415 15.08841700 89623,6917.875,95.437,540.783,538.697,0.0
53745.0,STARLINK-4656,PAYLOAD,2024-04-14 02:38:07,15.08840254,0.0001555,53.2171,142.3406,94.377,265.74,6.6825e-05,7.76e-06,0.0,0 STARLINK-4656,1 53745U 22107AX  24105.10980831  .00000776  00000-0  66825-4 0  9999,2 53745  53.2171 142.3406 0001555  94.3770 265.7400 15.08840254 88952,6917.88,95.438,540.82,538.669,0.0
53745.0,STARLINK-4656,PAYLOAD,2024-04-14 08:59:39,15.0884217,0.0001551,53.2167,141.1507,86.7405,273.3765,4.7835e-05,4.73e-06,0.0,0 STARLINK-4656,1 53745U 22107AX  24105.37476838  .00000473  00000-0  47835-4 0  9999,2 53745  53.2167 141.1507 0001551  86.7405 273.3765 15.08842170 89771,6917.874,95.437,540.812,538.666,0.0
53745.0,STARLINK-4656,PAYLOAD,2024-04-15 08:50:27,15.08839726,0.0001575,53.217,136.6905,99.7475,260.3695,1.7761e-05,-5e-08,0.0,0 STARLINK-4656,1 53745U 22107AX  24106.36837021 -.00000005  00000-0  17761-4 0  9991,2 53745  53.2170 136.6905 0001575  99.7475 260.3695 15.08839726 89145,6917.881,95.438,540.836,538.657,0.0
53745.0,STARLINK-4656,PAYLOAD,2024-04-15 18:22:46,15.08839532,0.0001565,53.2169,134.9063,99.5718,260.5452,1.8525e-05,7e-08,0.0,0 STARLINK-4656,1 53745U 22107AX  24106.76581061  .00000007  00000-0  18525-4 0  9995,2 53745  53.2169 134.9063 0001565  99.5718 260.5452 15.08839532 89986,6917.882,95.438,540.829,538.664,0.0
53745.0,STARLINK-4656,PAYLOAD,2024-04-16 08:41:13,15.08845452,0.0001408,53.216,132.2296,91.0968,269.0185,7.729e-05,9.43e-06,0.0,0 STARLINK-4656,1 53745U 22107AX  24107.36196591  .00000943  00000-0  77290-4 0  9995,2 53745  53.2160 132.2296 0001408  91.0968 269.0185 15.08845452 90073,6917.864,95.437,540.703,538.755,0.0
53745.0,STARLINK-4656,PAYLOAD,2024-04-17 05:21:15,15.08832767,0.0001359,53.2157,128.3646,94.4437,265.671,6.6517e-06,-1.82e-06,0.0,0 STARLINK-4656,1 53745U 22107AX  24108.22309962 -.00000182  00000-0  66517-5 0  9996,2 53745  53.2157 128.3646 0001359  94.4437 265.6710 15.08832767 89425,6917.902,95.438,540.708,538.827,0.0
53745.0,STARLINK-4656,PAYLOAD,2024-04-17 11:42:48,15.08832636,0.0001419,53.2167,127.1764,96.9326,263.1828,2.6604e-05,1.35e-06,0.0,0 STARLINK-4656,1 53745U 22107AX  24108.48806030  .00000135  00000-0  26604-4 0  9991,2 53745  53.2167 127.1764 0001419  96.9326 263.1828 15.08832636 90245,6917.903,95.438,540.75,538.786,0.0
53745.0,STARLINK-4656,PAYLOAD,2024-04-18 11:33:35,15.08837754,0.0001396,53.2161,122.713,92.0935,268.0217,3.9169e-05,3.35e-06,0.0,0 STARLINK-4656,1 53745U 22107AX  24109.48166296  .00000335  00000-0  39169-4 0  9997,2 53745  53.2161 122.7130 0001396  92.0935 268.0217 15.08837754 89615,6917.887,95.438,540.718,538.787,0.0
53745.0,STARLINK-4656,PAYLOAD,2024-04-19 08:13:35,15.08845758,0.0001481,53.2165,118.8465,86.2897,273.8264,0.00025557,3.782e-05,0.0,0 STARLINK-4656,1 53745U 22107AX  24110.34277686  .00003782  00000-0  25557-3 0  9994,2 53745  53.2165 118.8465 0001481  86.2897 273.8264 15.08845758 89746,6917.863,95.437,540.752,538.703,0.0
53745.0,STARLINK-4656,PAYLOAD,2024-04-20 04:53:36,15.088491,0.0001591,53.2162,114.9819,80.9127,279.2045,0.00019057,2.747e-05,0.0,0 STARLINK-4656,1 53745U 22107AX  24111.20389787  .00002747  00000-0  19057-3 0  9994,2 53745  53.2162 114.9819 0001591  80.9127 279.2045 15.08849100 89878,6917.853,95.437,540.818,538.617,0.0
53745.0,STARLINK-4656,PAYLOAD,2024-04-21 04:44:24,15.08832158,0.0001304,53.2158,110.5179,99.3852,260.7288,-0.00017595,-3.086e-05,0.0,0 STARLINK-4656,1 53745U 22107AX  24112.19750665 -.00003086  00000-0 -17595-3 0  9994,2 53745  53.2158 110.5179 0001304  99.3852 260.7288 15.08832158 90023,6917.904,95.438,540.671,538.867,0.0
53745.0,STARLINK-4656,PAYLOAD,2024-04-21 06:19:48,15.08831554,0.0001389,53.2172,110.2216,93.8981,266.217,-0.00013893,-2.498e-05,0.0,0 STARLINK-4656,1 53745U 22107AX  24112.26375436 -.00002498  00000-0 -13893-3 0  9994,2 53745  53.2172 110.2216 0001389  93.8981 266.2170 15.08831554 90810,6917.906,95.438,540.732,538.81,0.0
53745.0,STARLINK-4656,PAYLOAD,2024-04-22 04:35:11,15.08839542,0.0001833,53.22,106.0699,74.4319,285.6876,0.00012687,1.732e-05,0.0,0 STARLINK-4656,1 53745U 22107AX  24113.19110482  .00001732  00000-0  12687-3 0  9993,2 53745  53.2200 106.0699 0001833  74.4319 285.6876 15.08839542 90176,6917.882,95.438,541.015,538.479,0.0
53745.0,STARLINK-4656,PAYLOAD,2024-04-22 09:21:19,15.08853759,0.0001845,53.2171,105.1716,104.2368,255.8829,0.0002355,3.463e-05,0.0,0 STARLINK-4656,1 53745U 22107AX  24113.38981057  .00003463  00000-0  23550-3 0  9992,2 53745  53.2171 105.1716 0001845 104.2368 255.8829 15.08853759 90209,6917.838,95.437,540.98,538.427,0.0
53745.0,STARLINK-4656,PAYLOAD,2024-04-23 04:25:58,15.08837893,0.0001874,53.2174,101.5928,129.596,230.5197,0.00014706,2.053e-05,0.0,0 STARLINK-4656,1 53745U 22107AX  24114.18470133  .00002053  00000-0  14706-3 0  9996,2 53745  53.2174 101.5928 0001874 129.5960 230.5197 15.08837893 90329,6917.887,95.438,541.048,538.455,0.0
53745.0,STARLINK-4656,PAYLOAD,2024-04-23 09:12:07,15.08838222,0.0001252,53.2176,100.7042,106.4595,253.6535,0.00012185,1.652e-05,0.0,0 STARLINK-4656,1 53745U 22107AX  24114.38342340  .00001652  00000-0  12185-3 0  9999,2 53745  53.2176 100.7042 0001252 106.4595 253.6535 15.08838222 91136,6917.886,95.438,540.617,538.885,0.0
53745.0,STARLINK-4656,PAYLOAD,2024-04-24 05:52:08,15.08846293,0.0001481,53.218,96.8391,106.9168,253.1987,-6.0983e-05,-1.259e-05,0.0,0 STARLINK-4656,1 53745U 22107AX  24115.24454474 -.00001259  00000-0 -60983-4 0  9992,2 53745  53.2180  96.8391 0001481 106.9168 253.1987 15.08846293 90488,6917.861,95.437,540.751,538.702,0.0
53745.0,STARLINK-4656,PAYLOAD,2024-04-24 21:46:00,15.08832726,0.0001524,53.2181,93.8662,103.9178,256.1984,4.4622e-05,4.22e-06,0.0,0 STARLINK-4656,1 53745U 22107AX  24115.90695114  .00000422  00000-0  44622-4 0  9994,2 53745  53.2181  93.8662 0001524 103.9178 256.1984 15.08832726 90580,6917.903,95.438,540.822,538.713,0.0
53745.0,STARLINK-4656,PAYLOAD,2024-04-25 04:07:32,15.08839135,0.00015,53.2185,92.6776,102.4615,257.6546,2.7037e-05,1.42e-06,0.0,0 STARLINK-4656,1 53745U 22107AX  24116.17190755  .00000142  00000-0  27037-4 0  9995,2 53745  53.2185  92.6776 0001500 102.4615 257.6546 15.08839135 90627,6917.883,95.438,540.786,538.71,0.0
